45135,ONEWEB-0022,2020,109.89,148.0,-,87.89,Inactive,1,LEO,Kazakhstan,UK,Commercial,Communications,Soyuz,1 45135U 20008E   23351.15423085  .00000462  00000+0  12855-2 0  9994,2 45135  87.8919 217.6243 0001925  89.0814 271.0534 13.10393034189528,13.10393034,0.0001925,LEO
45133,ONEWEB-0020,2020,109.89,148.0,+,87.89,Active,1,LEO,Kazakhstan,UK,Commercial,Communications,Soyuz,1 45133U 20008C   23350.65727309 -.00000458  00000+0 -13482-2 0  9996,2 45133  87.8910 217.6975 0001632  83.3918 276.7395 13.10370830188701,13.1037083,0.0001632,LEO
45134,ONEWEB-0021,2020,109.89,148.0,+,87.89,Active,1,LEO,Kazakhstan,UK,Commercial,Communications,Soyuz,1 45134U 20008D   23350.67187040 -.00000562  00000+0 -16459-2 0  9994,2 45134  87.8919 217.7016 0001442  80.4164 279.7126 13.10372232189016,13.10372232,0.0001442,LEO
45136,ONEWEB-0023,2020,109.89,148.0,+,87.89,Active,1,LEO,Kazakhstan,UK,Commercial,Communications,Soyuz,1 45136U 20008F   23351.14300499 -.00012192  00000+0 -34976-1 0  9999,2 45136  87.8918 217.6004 0001569  42.9008 317.2241 13.10437152189258,13.10437152,0.0001569,LEO
45137,ONEWEB-0024,2020,109.89,148.0,+,87.89,Active,1,LEO,Kazakhstan,UK,Commercial,Communications,Soyuz,1 45137U 20008G   23350.65563065 -.00000441  00000+0 -12987-2 0  9998,2 45137  87.8902 217.7036 0001383  88.2168 271.9118 13.10370169188603,13.10370169,0.0001383,LEO
45138,ONEWEB-0025,2020,109.89,148.0,+,87.89,Active,1,LEO,Kazakhstan,UK,Commercial,Communications,Soyuz,1 45138U 20008H   23350.67350252 -.00000542  00000+0 -15887-2 0  9997,2 45138  87.8909 217.6995 0001253  68.4602 291.6659 13.10377218188930,13.10377218,0.0001253,LEO
45139,ONEWEB-0026,2020,109.82,148.0,+,87.9,Active,1,LEO,Kazakhstan,UK,Commercial,Communications,Soyuz,1 45139U 20008J   23351.11411347 -.00108029  00000+0 -30967+0 0  9993,2 45139  87.8980 202.5007 0002741  67.2681 292.8737 13.11137548192312,13.11137548,0.0002741,LEO
45140,ONEWEB-0028,2020,109.81,148.0,+,87.9,Active,1,LEO,Kazakhstan,UK,Commercial,Communications,Soyuz,1 45140U 20008K   23350.61180101 -.00000295  00000+0 -86837-3 0  9997,2 45140  87.8970 202.6473 0000879  61.7565 298.3652 13.11411402188889,13.11411402,8.79e-05,LEO
